start=new Date('2022-08-26T00:00:00.000Z').valueOf();
sats=[{"ARG_OF_PERICENTER":"63.3076","EPOCH":"2022-08-25T10:03:42.687648","MEAN_MOTION":"15.06388798","SEMIMAJOR_AXIS":"6925.383","ELEMENT_SET_NO":"999","COUNTRY_CODE":"US","OBJECT_TYPE":"PAYLOAD","TIME_SYSTEM":"UTC","CENTER_NAME":"EARTH","REV_AT_EPOCH":"10169","TLE_LINE2":"2 46764  53.0566  17.8529 0001284  63.3076 296.8045 15.06388798101692","REF_FRAME":"TEME","TLE_LINE1":"1 46764U 20074AB  22237.41924407  .00000244  00000-0  35277-4 0  9995","RA_OF_ASC_NODE":"17.8529","INCLINATION":"53.0566","FILE":"3547226","GP_ID":"210971388","MEAN_MOTION_DDOT":"0.0000000000000","RCS_SIZE":"LARGE","MEAN_MOTION_DOT":"0.00000244","BSTAR":"0.00003527700000","EPHEMERIS_TYPE":"0","OBJECT_ID":"2020-074AB","MEAN_ANOMALY":"296.8045","CLASSIFICATION_TYPE":"U","OBJECT_NAME":"STARLINK-1903","MEAN_ELEMENT_THEORY":"SGP4","PERIOD":"95.593","NORAD_CAT_ID":"46764","LAUNCH_DATE":"2020-10-24","PERIAPSIS":"546.359","SITE":"AFETR","DECAY_DATE":null,"ECCENTRICITY":"0.00012840","APOAPSIS":"548.137"},{"CLASSIFICATION_TYPE":"U","MEAN_ANOMALY":"266.7333","OBJECT_ID":"2020-074AC","EPHEMERIS_TYPE":"0","BSTAR":"-0.00007956500000","MEAN_MOTION_DOT":"-0.00001466","RCS_SIZE":"LARGE","MEAN_MOTION_DDOT":"0.0000000000000","APOAPSIS":"548.200","ECCENTRICITY":"0.00013710","DECAY_DATE":null,"PERIAPSIS":"546.301","SITE":"AFETR","LAUNCH_DATE":"2020-10-24","NORAD_CAT_ID":"46765","PERIOD":"95.593","MEAN_ELEMENT_THEORY":"SGP4","OBJECT_NAME":"STARLINK-1906","CENTER_NAME":"EARTH","TIME_SYSTEM":"UTC","COUNTRY_CODE":"US","OBJECT_TYPE":"PAYLOAD","ELEMENT_SET_NO":"999","SEMIMAJOR_AXIS":"6925.386","MEAN_MOTION":"15.06387797","ARG_OF_PERICENTER":"93.3813","EPOCH":"2022-08-25T16:09:57.513312","GP_ID":"211005139","FILE":"3547674","RA_OF_ASC_NODE":"16.6982","INCLINATION":"53.0558","TLE_LINE1":"1 46765U 20074AC  22237.67358233 -.00001466  00000-0 -79565-4 0  9999","REF_FRAME":"TEME","TLE_LINE2":"2 46765  53.0558  16.6982 0001371  93.3813 266.7333 15.06387797101721","REV_AT_EPOCH":"10172"},{"REF_FRAME":"TEME","TLE_LINE1":"1 46766U 20074AD  22237.79888946  .00000607  00000-0  59640-4 0  9998","RA_OF_ASC_NODE":"16.1447","INCLINATION":"53.0577","FILE":"3547674","GP_ID":"211005885","REV_AT_EPOCH":"10175","TLE_LINE2":"2 46766  53.0577  16.1447 0001428  82.1442 277.9709 15.06401919101758","ELEMENT_SET_NO":"999","OBJECT_TYPE":"PAYLOAD","COUNTRY_CODE":"US","TIME_SYSTEM":"UTC","CENTER_NAME":"EARTH","EPOCH":"2022-08-25T19:10:24.049344","ARG_OF_PERICENTER":"82.1442","MEAN_MOTION":"15.06401919","SEMIMAJOR_AXIS":"6925.343","LAUNCH_DATE":"2020-10-24","SITE":"AFETR","PERIAPSIS":"546.219","DECAY_DATE":null,"APOAPSIS":"548.197","ECCENTRICITY":"0.00014280","OBJECT_NAME":"STARLINK-1916","MEAN_ELEMENT_THEORY":"SGP4","PERIOD":"95.592","NORAD_CAT_ID":"46766","OBJECT_ID":"2020-074AD","MEAN_ANOMALY":"277.9709","CLASSIFICATION_TYPE":"U","MEAN_MOTION_DDOT":"0.0000000000000","RCS_SIZE":"LARGE","BSTAR":"0.00005964000000","MEAN_MOTION_DOT":"0.00000607","EPHEMERIS_TYPE":"0"},{"REV_AT_EPOCH":"10174","TLE_LINE2":"2 46767  53.0565  16.3218 0001446  86.2383 273.8772 15.06383515101748","GP_ID":"211004878","FILE":"3547674","REF_FRAME":"TEME","INCLINATION":"53.0565","RA_OF_ASC_NODE":"16.3218","TLE_LINE1":"1 46767U 20074AE  22237.76204657 -.00001914  00000-0 -10966-3 0  9998","SEMIMAJOR_AXIS":"6925.399","ARG_OF_PERICENTER":"86.2383","EPOCH":"2022-08-25T18:17:20.823648","MEAN_MOTION":"15.06383515","TIME_SYSTEM":"UTC","CENTER_NAME":"EARTH","ELEMENT_SET_NO":"999","COUNTRY_CODE":"US","OBJECT_TYPE":"PAYLOAD","PERIOD":"95.593","NORAD_CAT_ID":"46767","OBJECT_NAME":"STARLINK-1917","MEAN_ELEMENT_THEORY":"SGP4","APOAPSIS":"548.265","ECCENTRICITY":"0.00014460","DECAY_DATE":null,"LAUNCH_DATE":"2020-10-24","PERIAPSIS":"546.263","SITE":"AFETR","BSTAR":"-0.00010966000000","MEAN_MOTION_DOT":"-0.00001914","EPHEMERIS_TYPE":"0","MEAN_MOTION_DDOT":"0.0000000000000","RCS_SIZE":"LARGE","CLASSIFICATION_TYPE":"U","MEAN_ANOMALY":"273.8772","OBJECT_ID":"2020-074AE"},{"GP_ID":"210971888","FILE":"3547226","INCLINATION":"53.0548","RA_OF_ASC_NODE":"17.4825","TLE_LINE1":"1 46768U 20074AF  22237.50033459  .00001508  00000-0  12011-3 0  9991","REF_FRAME":"TEME","TLE_LINE2":"2 46768  53.0548  17.4825 0001309  56.7350 303.3765 15.06404522101709","REV_AT_EPOCH":"10170","CENTER_NAME":"EARTH","TIME_SYSTEM":"UTC","COUNTRY_CODE":"US","OBJECT_TYPE":"PAYLOAD","ELEMENT_SET_NO":"999","SEMIMAJOR_AXIS":"6925.335","MEAN_MOTION":"15.06404522","EPOCH":"2022-08-25T12:00:28.908576","ARG_OF_PERICENTER":"56.7350","APOAPSIS":"548.106","ECCENTRICITY":"0.00013090","DECAY_DATE":null,"SITE":"AFETR","PERIAPSIS":"546.293","LAUNCH_DATE":"2020-10-24","NORAD_CAT_ID":"46768","PERIOD":"95.592","MEAN_ELEMENT_THEORY":"SGP4","OBJECT_NAME":"STARLINK-1918","CLASSIFICATION_TYPE":"U","MEAN_ANOMALY":"303.3765","OBJECT_ID":"2020-074AF","EPHEMERIS_TYPE":"0","BSTAR":"0.00012011000000","MEAN_MOTION_DOT":"0.00001508","RCS_SIZE":"LARGE","MEAN_MOTION_DDOT":"0.0000000000000"},{"DECAY_DATE":null,"ECCENTRICITY":"0.00014240","APOAPSIS":"548.242","LAUNCH_DATE":"2020-10-24","PERIAPSIS":"546.269","SITE":"AFETR","PERIOD":"95.593","NORAD_CAT_ID":"46770","OBJECT_NAME":"STARLINK-1932","MEAN_ELEMENT_THEORY":"SGP4","CLASSIFICATION_TYPE":"U","OBJECT_ID":"2020-074AH","MEAN_ANOMALY":"279.9402","BSTAR":"-0.00000746200000","MEAN_MOTION_DOT":"-0.00000393","EPHEMERIS_TYPE":"0","MEAN_MOTION_DDOT":"0.0000000000000","RCS_SIZE":"LARGE","FILE":"3547487","GP_ID":"210980364","REF_FRAME":"TEME","TLE_LINE1":"1 46770U 20074AH  22237.50778259 -.00000393  00000-0 -74620-5 0  9997","RA_OF_ASC_NODE":"18.0055","INCLINATION":"53.0568","REV_AT_EPOCH":"10171","TLE_LINE2":"2 46770  53.0568  18.0055 0001424  80.1748 279.9402 15.06386267101718","TIME_SYSTEM":"UTC","CENTER_NAME":"EARTH","ELEMENT_SET_NO":"999","COUNTRY_CODE":"US","OBJECT_TYPE":"PAYLOAD","SEMIMAJOR_AXIS":"6925.391","ARG_OF_PERICENTER":"80.1748","EPOCH":"2022-08-25T12:11:12.415776","MEAN_MOTION":"15.06386267"},{"OBJECT_ID":"2020-074AK","MEAN_ANOMALY":"272.4701","CLASSIFICATION_TYPE":"U","MEAN_MOTION_DDOT":"0.0000000000000","RCS_SIZE":"LARGE","BSTAR":"0.00004995700000","MEAN_MOTION_DOT":"0.00000463","EPHEMERIS_TYPE":"0","LAUNCH_DATE":"2020-10-24","SITE":"AFETR","PERIAPSIS":"546.480","DECAY_DATE":null,"APOAPSIS":"548.000","ECCENTRICITY":"0.00010970","OBJECT_NAME":"STARLINK-1936","MEAN_ELEMENT_THEORY":"SGP4","PERIOD":"95.593","NORAD_CAT_ID":"46772","ELEMENT_SET_NO":"999","COUNTRY_CODE":"US","OBJECT_TYPE":"PAYLOAD","TIME_SYSTEM":"UTC","CENTER_NAME":"EARTH","ARG_OF_PERICENTER":"87.6413","EPOCH":"2022-08-25T08:58:39.544320","MEAN_MOTION":"15.06391399","SEMIMAJOR_AXIS":"6925.375","REF_FRAME":"TEME","TLE_LINE1":"1 46772U 20074AK  22237.37406880  .00000463  00000-0  49957-4 0  9992","INCLINATION":"53.0574","RA_OF_ASC_NODE":"18.0456","FILE":"3547226","GP_ID":"210970387","REV_AT_EPOCH":"10168","TLE_LINE2":"2 46772  53.0574  18.0456 0001097  87.6413 272.4701 15.06391399101687"},{"TLE_LINE1":"1 46774U 20074AM  22237.62624076  .00010934  00000-0  55546-3 0  9995","RA_OF_ASC_NODE":"3.9358","INCLINATION":"53.0508","REF_FRAME":"TEME","FILE":"3547674","GP_ID":"211005379","TLE_LINE2":"2 46774  53.0508   3.9358 0001673  54.6920 305.4230 15.17379293101918","REV_AT_EPOCH":"10191","OBJECT_TYPE":"PAYLOAD","COUNTRY_CODE":"US","ELEMENT_SET_NO":"999","CENTER_NAME":"EARTH","TIME_SYSTEM":"UTC","MEAN_MOTION":"15.17379293","ARG_OF_PERICENTER":"54.6920","EPOCH":"2022-08-25T15:01:47.201664","SEMIMAJOR_AXIS":"6891.902","PERIAPSIS":"512.614","SITE":"AFETR","LAUNCH_DATE":"2020-10-24","DECAY_DATE":null,"ECCENTRICITY":"0.00016730","APOAPSIS":"514.920","MEAN_ELEMENT_THEORY":"SGP4","OBJECT_NAME":"STARLINK-1939","NORAD_CAT_ID":"46774","PERIOD":"94.900","OBJECT_ID":"2020-074AM","MEAN_ANOMALY":"305.4230","CLASSIFICATION_TYPE":"U","RCS_SIZE":"LARGE","MEAN_MOTION_DDOT":"0.0000000000000","EPHEMERIS_TYPE":"0","BSTAR":"0.00055546000000","MEAN_MOTION_DOT":"0.00010934"},{"CENTER_NAME":"EARTH","TIME_SYSTEM":"UTC","OBJECT_TYPE":"PAYLOAD","COUNTRY_CODE":"US","ELEMENT_SET_NO":"999","SEMIMAJOR_AXIS":"6808.419","MEAN_MOTION":"15.45372937","ARG_OF_PERICENTER":"274.1802","EPOCH":"2022-08-25T11:08:20.441472","FILE":"3547114","GP_ID":"210946799","TLE_LINE1":"1 46776U 20074AP  22237.46412548  .00132560  00000-0  26921-2 0  9992","INCLINATION":"53.0529","RA_OF_ASC_NODE":"326.9880","REF_FRAME":"TEME","TLE_LINE2":"2 46776  53.0529 326.9880 0007635 274.1802  85.8331 15.45372937102105","REV_AT_EPOCH":"10210","CLASSIFICATION_TYPE":"U","OBJECT_ID":"2020-074AP","MEAN_ANOMALY":"85.8331","EPHEMERIS_TYPE":"0","MEAN_MOTION_DOT":"0.00132560","BSTAR":"0.00269210000000","RCS_SIZE":"LARGE","MEAN_MOTION_DDOT":"0.0000000000000","DECAY_DATE":null,"APOAPSIS":"435.483","ECCENTRICITY":"0.00076350","PERIAPSIS":"425.086","SITE":"AFETR","LAUNCH_DATE":"2020-10-24","NORAD_CAT_ID":"46776","PERIOD":"93.181","MEAN_ELEMENT_THEORY":"SGP4","OBJECT_NAME":"STARLINK-1946"},{"FILE":"3547674","GP_ID":"211005140","REF_FRAME":"TEME","TLE_LINE1":"1 46779U 20074AS  22237.80304875  .00000408  00000-0  46304-4 0  9990","RA_OF_ASC_NODE":"351.1361","INCLINATION":"53.0558","REV_AT_EPOCH":"10209","TLE_LINE2":"2 46779  53.0558 351.1361 0001104  83.7439 276.3676 15.06394151102095","TIME_SYSTEM":"UTC","CENTER_NAME":"EARTH","ELEMENT_SET_NO":"999","OBJECT_TYPE":"PAYLOAD","COUNTRY_CODE":"US","SEMIMAJOR_AXIS":"6925.366","EPOCH":"2022-08-25T19:16:23.412000","ARG_OF_PERICENTER":"83.7439","MEAN_MOTION":"15.06394151","DECAY_DATE":null,"APOAPSIS":"547.996","ECCENTRICITY":"0.00011040","LAUNCH_DATE":"2020-10-24","PERIAPSIS":"546.467","SITE":"AFETR","PERIOD":"95.593","NORAD_CAT_ID":"46779","OBJECT_NAME":"STARLINK-1798","MEAN_ELEMENT_THEORY":"SGP4","CLASSIFICATION_TYPE":"U","OBJECT_ID":"2020-074AS","MEAN_ANOMALY":"276.3676","BSTAR":"0.00004630400000","MEAN_MOTION_DOT":"0.00000408","EPHEMERIS_TYPE":"0","MEAN_MOTION_DDOT":"0.0000000000000","RCS_SIZE":"LARGE"}];
